[{"OBJECT_NAME":"ONEWEB-0520","OBJECT_ID":"2022-138AB","EPOCH":"2026-05-24T22:19:04.427904","MEAN_MOTION":13.19725995,"ECCENTRICITY":0.0001638,"INCLINATION":87.9159,"RA_OF_ASC_NODE":309.6005,"ARG_OF_PERICENTER":85.4754,"MEAN_ANOMALY":274.6566,"EPHEMERIS_TYPE":0,"CLASSIFICATION_TYPE":"U","NORAD_CAT_ID":54138,"ELEMENT_SET_NO":999,"REV_AT_EPOCH":17375,"BSTAR":2.4115000000000002e-05,"MEAN_MOTION_DOT":2.3e-07,"MEAN_MOTION_DDOT":0.0},{"OBJECT_NAME":"ONEWEB-0521","OBJECT_ID":"2022-138AC","EPOCH":"2026-05-24T21:17:39.316704","MEAN_MOTION":13.19725475,"ECCENTRICITY":0.0002067,"INCLINATION":87.9159,"RA_OF_ASC_NODE":309.5978,"ARG_OF_PERICENTER":94.3053,"MEAN_ANOMALY":265.8316,"EPHEMERIS_TYPE":0,"CLASSIFICATION_TYPE":"U","NORAD_CAT_ID":54139,"ELEMENT_SET_NO":999,"REV_AT_EPOCH":17369,"BSTAR":1.7312e-05,"MEAN_MOTION_DOT":2e-07,"MEAN_MOTION_DDOT":0.0},{"OBJECT_NAME":"ONEWEB-0522","OBJECT_ID":"2022-138AD","EPOCH":"2026-05-24T22:37:15.927744","MEAN_MOTION":13.19726176,"ECCENTRICITY":0.0001745,"INCLINATION":87.916,"RA_OF_ASC_NODE":309.5888,"ARG_OF_PERICENTER":88.7612,"MEAN_ANOMALY":271.372,"EPHEMERIS_TYPE":0,"CLASSIFICATION_TYPE":"U","NORAD_CAT_ID":54140,"ELEMENT_SET_NO":999,"REV_AT_EPOCH":17374,"BSTAR":0.00017382,"MEAN_MOTION_DOT":8.3e-07,"MEAN_MOTION_DDOT":0.0},{"OBJECT_NAME":"ONEWEB-0523","OBJECT_ID":"2022-138AE","EPOCH":"2026-05-24T22:09:49.236192","MEAN_MOTION":13.20771892,"ECCENTRICITY":0.0002464,"INCLINATION":87.9177,"RA_OF_ASC_NODE":279.0783,"ARG_OF_PERICENTER":115.0796,"MEAN_ANOMALY":245.0593,"EPHEMERIS_TYPE":0,"CLASSIFICATION_TYPE":"U","NORAD_CAT_ID":54141,"ELEMENT_SET_NO":999,"REV_AT_EPOCH":17623,"BSTAR":-0.00016993,"MEAN_MOTION_DOT":-5.6e-07,"MEAN_MOTION_DDOT":0.0},{"OBJECT_NAME":"ONEWEB-0524","OBJECT_ID":"2022-138AF","EPOCH":"2026-05-24T21:55:16.336992","MEAN_MOTION":13.20770862,"ECCENTRICITY":0.000167,"INCLINATION":87.9176,"RA_OF_ASC_NODE":279.0774,"ARG_OF_PERICENTER":127.6217,"MEAN_ANOMALY":232.5068,"EPHEMERIS_TYPE":0,"CLASSIFICATION_TYPE":"U","NORAD_CAT_ID":54142,"ELEMENT_SET_NO":999,"REV_AT_EPOCH":17623,"BSTAR":-0.0005434600000000001,"MEAN_MOTION_DOT":-2.08e-06,"MEAN_MOTION_DDOT":0.0},{"OBJECT_NAME":"ONEWEB-0525","OBJECT_ID":"2022-138AG","EPOCH":"2026-05-24T21:15:21.275424","MEAN_MOTION":13.19731954,"ECCENTRICITY":0.0001681,"INCLINATION":87.9158,"RA_OF_ASC_NODE":309.6089,"ARG_OF_PERICENTER":85.2912,"MEAN_ANOMALY":274.8412,"EPHEMERIS_TYPE":0,"CLASSIFICATION_TYPE":"U","NORAD_CAT_ID":54143,"ELEMENT_SET_NO":999,"REV_AT_EPOCH":17375,"BSTAR":-0.0059658,"MEAN_MOTION_DOT":-2.375e-05,"MEAN_MOTION_DDOT":0.0},{"OBJECT_NAME":"ONEWEB-0526","OBJECT_ID":"2022-138AH","EPOCH":"2026-05-24T22:03:08.722944","MEAN_MOTION":13.19727842,"ECCENTRICITY":0.0001676,"INCLINATION":87.9158,"RA_OF_ASC_NODE":309.6023,"ARG_OF_PERICENTER":93.4377,"MEAN_ANOMALY":266.6947,"EPHEMERIS_TYPE":0,"CLASSIFICATION_TYPE":"U","NORAD_CAT_ID":54144,"ELEMENT_SET_NO":999,"REV_AT_EPOCH":17373,"BSTAR":-2.3423e-05,"MEAN_MOTION_DOT":4e-08,"MEAN_MOTION_DDOT":0.0},{"OBJECT_NAME":"ONEWEB-0529","OBJECT_ID":"2022-138AJ","EPOCH":"2026-05-24T22:07:41.333088","MEAN_MOTION":13.19726474,"ECCENTRICITY":0.0001616,"INCLINATION":87.9151,"RA_OF_ASC_NODE":309.6126,"ARG_OF_PERICENTER":87.9889,"MEAN_ANOMALY":272.1429,"EPHEMERIS_TYPE":0,"CLASSIFICATION_TYPE":"U","NORAD_CAT_ID":54145,"ELEMENT_SET_NO":999,"REV_AT_EPOCH":17375,"BSTAR":-0.00014466000000000001,"MEAN_MOTION_DOT":-4.5e-07,"MEAN_MOTION_DDOT":0.0},{"OBJECT_NAME":"ONEWEB-0531","OBJECT_ID":"2022-138AK","EPOCH":"2026-05-24T21:35:55.613472","MEAN_MOTION":13.20771456,"ECCENTRICITY":0.0002288,"INCLINATION":87.9173,"RA_OF_ASC_NODE":279.0785,"ARG_OF_PERICENTER":120.8307,"MEAN_ANOMALY":239.3052,"EPHEMERIS_TYPE":0,"CLASSIFICATION_TYPE":"U","NORAD_CAT_ID":54146,"ELEMENT_SET_NO":999,"REV_AT_EPOCH":17623,"BSTAR":-0.00027365,"MEAN_MOTION_DOT":-9.8e-07,"MEAN_MOTION_DDOT":0.0},{"OBJECT_NAME":"ONEWEB-0535","OBJECT_ID":"2022-138AL","EPOCH":"2026-05-24T22:55:27.863904","MEAN_MOTION":13.19726133,"ECCENTRICITY":0.000209,"INCLINATION":87.9159,"RA_OF_ASC_NODE":309.5883,"ARG_OF_PERICENTER":100.1649,"MEAN_ANOMALY":259.972,"EPHEMERIS_TYPE":0,"CLASSIFICATION_TYPE":"U","NORAD_CAT_ID":54147,"ELEMENT_SET_NO":999,"REV_AT_EPOCH":17377,"BSTAR":1.5436e-05,"MEAN_MOTION_DOT":1.9e-07,"MEAN_MOTION_DDOT":0.0},{"OBJECT_NAME":"ONEWEB-0536","OBJECT_ID":"2022-138AM","EPOCH":"2026-05-24T21:16:29.228160","MEAN_MOTION":13.20772315,"ECCENTRICITY":0.0002248,"INCLINATION":87.9163,"RA_OF_ASC_NODE":279.106,"ARG_OF_PERICENTER":126.076,"MEAN_ANOMALY":234.0582,"EPHEMERIS_TYPE":0,"CLASSIFICATION_TYPE":"U","NORAD_CAT_ID":54148,"ELEMENT_SET_NO":999,"REV_AT_EPOCH":17622,"BSTAR":-4.3082e-05,"MEAN_MOTION_DOT":-5e-08,"MEAN_MOTION_DDOT":0.0},{"OBJECT_NAME":"ONEWEB-0527","OBJECT_ID":"2022-166A","EPOCH":"2026-05-24T16:54:58.528512","MEAN_MOTION":13.21827612,"ECCENTRICITY":0.0001943,"INCLINATION":87.9251,"RA_OF_ASC_NODE":248.6671,"ARG_OF_PERICENTER":102.1648,"MEAN_ANOMALY":257.9704,"EPHEMERIS_TYPE":0,"CLASSIFICATION_TYPE":"U","NORAD_CAT_ID":54642,"ELEMENT_SET_NO":999,"REV_AT_EPOCH":16843,"BSTAR":5.3798e-05,"MEAN_MOTION_DOT":3.5e-07,"MEAN_MOTION_DDOT":0.0},{"OBJECT_NAME":"ONEWEB-0528","OBJECT_ID":"2022-166B","EPOCH":"2026-05-24T13:25:28.383456","MEAN_MOTION":13.21826146,"ECCENTRICITY":0.0001758,"INCLINATION":87.9253,"RA_OF_ASC_NODE":248.7005,"ARG_OF_PERICENTER":97.1655,"MEAN_ANOMALY":262.9679,"EPHEMERIS_TYPE":0,"CLASSIFICATION_TYPE":"U","NORAD_CAT_ID":54643,"ELEMENT_SET_NO":999,"REV_AT_EPOCH":16842,"BSTAR":0.00016835,"MEAN_MOTION_DOT":8.3e-07,"MEAN_MOTION_DDOT":0.0},{"OBJECT_NAME":"ONEWEB-0539","OBJECT_ID":"2022-166C","EPOCH":"2026-05-24T19:48:12.476160","MEAN_MOTION":13.21825163,"ECCENTRICITY":0.0002132,"INCLINATION":87.9259,"RA_OF_ASC_NODE":248.6182,"ARG_OF_PERICENTER":95.7914,"MEAN_ANOMALY":264.3463,"EPHEMERIS_TYPE":0,"CLASSIFICATION_TYPE":"U","NORAD_CAT_ID":54644,"ELEMENT_SET_NO":999,"REV_AT_EPOCH":16845,"BSTAR":-0.0002827,"MEAN_MOTION_DOT":-1.04e-06,"MEAN_MOTION_DDOT":0.0},{"OBJECT_NAME":"ONEWEB-0540","OBJECT_ID":"2022-166D","EPOCH":"2026-05-24T19:58:05.496384","MEAN_MOTION":13.21825232,"ECCENTRICITY":0.0002075,"INCLINATION":87.9252,"RA_OF_ASC_NODE":248.6486,"ARG_OF_PERICENTER":98.5681,"MEAN_ANOMALY":261.5689,"EPHEMERIS_TYPE":0,"CLASSIFICATION_TYPE":"U","NORAD_CAT_ID":54645,"ELEMENT_SET_NO":999,"REV_AT_EPOCH":16844,"BSTAR":-0.00015753000000000002,"MEAN_MOTION_DOT":-5.2e-07,"MEAN_MOTION_DDOT":0.0},{"OBJECT_NAME":"ONEWEB-0542","OBJECT_ID":"2022-166E","EPOCH":"2026-05-24T20:02:44.539008","MEAN_MOTION":13.21824588,"ECCENTRICITY":0.0002226,"INCLINATION":87.9261,"RA_OF_ASC_NODE":248.6143,"ARG_OF_PERICENTER":95.401,"MEAN_ANOMALY":264.7378,"EPHEMERIS_TYPE":0,"CLASSIFICATION_TYPE":"U","NORAD_CAT_ID":54646,"ELEMENT_SET_NO":999,"REV_AT_EPOCH":16845,"BSTAR":-0.00019902,"MEAN_MOTION_DOT":-6.9e-07,"MEAN_MOTION_DDOT":0.0}]