ONEWEB-0520             
1 54138U 22138AB  26144.92991236  .00000023  00000+0  24115-4 0  9996
2 54138  87.9159 309.6005 0001638  85.4754 274.6566 13.19725995173756
ONEWEB-0521             
1 54139U 22138AC  26144.88726061  .00000020  00000+0  17312-4 0  9992
2 54139  87.9159 309.5978 0002067  94.3053 265.8316 13.19725475173694
ONEWEB-0522             
1 54140U 22138AD  26144.94254546  .00000083  00000+0  17382-3 0  9990
2 54140  87.9160 309.5888 0001745  88.7612 271.3720 13.19726176173744
ONEWEB-0523             
1 54141U 22138AE  26144.92348653 -.00000056  00000+0 -16993-3 0  9991
2 54141  87.9177 279.0783 0002464 115.0796 245.0593 13.20771892176234
ONEWEB-0524             
1 54142U 22138AF  26144.91338353 -.00000208  00000+0 -54346-3 0  9990
2 54142  87.9176 279.0774 0001670 127.6217 232.5068 13.20770862176233
ONEWEB-0525             
1 54143U 22138AG  26144.88566291 -.00002375  00000+0 -59658-2 0  9998
2 54143  87.9158 309.6089 0001681  85.2912 274.8412 13.19731954173759
ONEWEB-0526             
1 54144U 22138AH  26144.91885096  .00000004  00000+0 -23423-4 0  9999
2 54144  87.9158 309.6023 0001676  93.4377 266.6947 13.19727842173739
ONEWEB-0529             
1 54145U 22138AJ  26144.92200617 -.00000045  00000+0 -14466-3 0  9993
2 54145  87.9151 309.6126 0001616  87.9889 272.1429 13.19726474173756
ONEWEB-0531             
1 54146U 22138AK  26144.89994923 -.00000098  00000+0 -27365-3 0  9990
2 54146  87.9173 279.0785 0002288 120.8307 239.3052 13.20771456176235
ONEWEB-0535             
1 54147U 22138AL  26144.95518361  .00000019  00000+0  15436-4 0  9994
2 54147  87.9159 309.5883 0002090 100.1649 259.9720 13.19726133173775
ONEWEB-0536             
1 54148U 22138AM  26144.88644940 -.00000005  00000+0 -43082-4 0  9995
2 54148  87.9163 279.1060 0002248 126.0760 234.0582 13.20772315176224
ONEWEB-0527             
1 54642U 22166A   26144.70484408  .00000035  00000+0  53798-4 0  9993
2 54642  87.9251 248.6671 0001943 102.1648 257.9704 13.21827612168437
ONEWEB-0528             
1 54643U 22166B   26144.55935629  .00000083  00000+0  16835-3 0  9996
2 54643  87.9253 248.7005 0001758  97.1655 262.9679 13.21826146168424
ONEWEB-0539             
1 54644U 22166C   26144.82514440 -.00000104  00000+0 -28270-3 0  9993
2 54644  87.9259 248.6182 0002132  95.7914 264.3463 13.21825163168453
ONEWEB-0540             
1 54645U 22166D   26144.83200806 -.00000052  00000+0 -15753-3 0  9997
2 54645  87.9252 248.6486 0002075  98.5681 261.5689 13.21825232168447
ONEWEB-0542             
1 54646U 22166E   26144.83523772 -.00000069  00000+0 -19902-3 0  9996
2 54646  87.9261 248.6143 0002226  95.4010 264.7378 13.21824588168452
